LEMUR-1                 
1 40044U 14033AL  22304.43422144  .00001653  00000+0  24503-3 0  9999
2 40044  97.6583 125.6783 0059417  78.8536 281.9346 14.75163157449928
LEMUR-2-XIAOQING        
1 41871U 16062C   22305.00619549  .00055355  00000+0  11517-2 0  9991
2 41871  51.6342  45.2366 0003779  30.1717 329.9486 15.45074357331004
LEMUR-2-SOKOLSKY        
1 41872U 16062D   22304.59428460  .00049011  00000+0  10310-2 0  9997
2 41872  51.6775  57.7003 0002251 286.4824  73.5916 15.44809085330901
LEMUR-2-ANUBHAVTHAKUR   
1 41873U 16062E   22304.74500102  .00013215  00000+0  46279-3 0  9990
2 41873  51.6778 107.6457 0006860  46.3607 313.7942 15.29781254330183
LEMUR-2-WINGO           
1 41874U 16062F   22304.37900083  .00046407  00000+0  10269-2 0  9990
2 41874  51.6471  59.8763 0010019 345.5560  14.5139 15.43288853330766
LEMUR-2-JOBANPUTRA      
1 41991U 17008AV  22305.17100231  .00027886  00000+0  76632-3 0  9994
2 41991  97.2432   4.2297 0007400 106.0237 254.1823 15.37155515317146
LEMUR-2-SPIRE-MINIONS   
1 41992U 17008AW  22305.44909874  .00044745  00000+0  10399-2 0  9995
2 41992  97.2520   9.6745 0005776  94.9805 265.2102 15.42191099317474
LEMUR-2-SATCHMO         
1 41993U 17008AX  22304.40582773  .00022771  00000+0  66263-3 0  9993
2 41993  97.2440   3.8145 0007194 108.8094 251.3931 15.35406986317042
LEMUR-2-SMITA-SHARAD    
1 41994U 17008AY  22304.59260428  .00039904  00000+0  92941-3 0  9992
2 41994  97.2505   8.5788 0005763  97.4826 262.7076 15.42151333317335
LEMUR-2-RDEATON         
1 41995U 17008AZ  22304.44950155  .00020263  00000+0  59752-3 0  9991
2 41995  97.2481   4.0952 0007991 118.0543 242.1510 15.35005802317734
LEMUR-2-TACHIKOMA       
1 41996U 17008BA  22305.16552661  .00029099  00000+0  70163-3 0  9997
2 41996  97.2562   9.3721 0006973 110.4278 249.7719 15.41162700317290
LEMUR-2-NOGUECORREIG    
1 41997U 17008BB  22305.14077915  .00041986  00000+0  97311-3 0  9993
2 41997  97.2530   9.9009 0006548 108.2849 251.9112 15.42282802317433
LEMUR-2-MIA-GRACE       
1 41998U 17008BC  22304.13539884  .00020571  00000+0  60881-3 0  9999
2 41998  97.2454   3.3303 0007873 120.9658 239.2360 15.34889299316904
LEMUR-2-ANGELA          
1 42752U 17019B   22305.46715627  .00050628  00000+0  89172-3 0  9998
2 42752  51.6316 287.2485 0004806 156.2411 203.8800 15.49917305302367
LEMUR-2-JENNYBARNA      
1 42753U 17019C   22305.38367540  .00206807  00000+0  15109-2 0  9997
2 42753  51.6230 249.5576 0006284 142.5554 217.5883 15.72041800302810
LEMUR-2-ROBMOORE        
1 42754U 17019D   22305.33521134  .00036943  00000+0  70115-3 0  9995
2 42754  51.6323 290.0685 0003710 167.2042 192.9041 15.47929127302296
LEMUR-2-SPIROVISION     
1 42755U 17019E   22305.39586986  .00187329  00000+0  14770-2 0  9997
2 42755  51.6294 250.8396 0006486 143.5705 302.1256 15.70285929302714
LEMUR-2-SHAINAJOHL      
1 42771U 17036G   22304.85265381  .00029023  00000+0  86090-3 0  9998
2 42771  97.1871 342.6837 0010620 178.6747 181.4526 15.34723547297879
LEMUR-2-XUENITERENCE    
1 42772U 17036H   22305.51601646  .00039002  00000+0  10708-2 0  9991
2 42772  97.1771 343.6011 0010007 170.1658 189.9785 15.37091157298038
LEMUR-2-LUCYBRYCE       
1 42773U 17036J   22305.06701344  .00030110  00000+0  96740-3 0  9990
2 42773  97.1899 342.8150 0010798 179.7020 180.4231 15.32171586297851
LEMUR-2-KUNGFOO         
1 42774U 17036K   22304.82565387  .00029501  00000+0  86417-3 0  9991
2 42774  97.1862 343.1438 0010076 175.0391 185.0954 15.35121794297890
LEMUR-2-LYNSEY-SYMO     
1 42779U 17036Q   22305.36141881  .00031450  00000+0  81896-3 0  9997
2 42779  97.1882 348.6529 0008711 169.4917 190.6513 15.38784826298250
LEMUR-2-LISASAURUS      
1 42780U 17036R   22305.11714440  .00037999  00000+0  10972-2 0  9999
2 42780  97.1877 344.6071 0008689 181.9805 178.1407 15.35534708297984
LEMUR-2-SAM-AMELIA      
1 42781U 17036S   22304.08010458  .00012553  00000+0  41269-3 0  9996
2 42781  97.1894 344.0388 0009426 186.4073 173.7050 15.31629653297824
LEMUR-2-MCPEAKE         
1 42782U 17036T   22305.11124587  .00027428  00000+0  78842-3 0  9995
2 42782  97.1873 346.3836 0008653 174.4309 185.7033 15.35743156298100
LEMUR-2-GREENBERG       
1 42837U 17042N   22304.83401985  .00003687  00000+0  34768-3 0  9991
2 42837  97.4110 154.9019 0010971 260.6773  99.3208 14.94315990288639
LEMUR-2-ANDIS           
1 42838U 17042P   22305.36472897  .00003650  00000+0  34386-3 0  9997
2 42838  97.4093 155.3310 0011026 258.0886 101.9099 14.94358991288712
LEMUR-2-MONSON          
1 42839U 17042Q   22304.53385856  .00004620  00000+0  43658-3 0  9994
2 42839  97.4106 154.2878 0010554 260.9634  99.0393 14.94115400288566
LEMUR-2-FURIAUS         
1 42840U 17042R   22304.54313428  .00005110  00000+0  48712-3 0  9994
2 42840  97.4144 154.6502 0010899 262.3526  97.6457 14.93722212288565
LEMUR-2-PETERG          
1 42841U 17042S   22305.35342501  .00003244  00000+0  30813-3 0  9998
2 42841  97.4166 156.5897 0010492 254.2487 105.7577 14.94105112288753
LEMUR-2-DEMBITZ         
1 42842U 17042T   22304.50619600  .00003841  00000+0  35997-3 0  9993
2 42842  97.4133 155.6671 0010728 258.3029 101.6988 14.94537378288638
LEMUR-2-ZACHARY         
1 42845U 17042W   22304.84709039  .00005826  00000+0  53225-3 0  9998
2 42845  97.4016 155.1255 0010891 257.3435 102.6569 14.95347951288739
LEMUR-2-MCCAFFERTY      
1 43123U 18004N   22304.49354581  .00042653  00000+0  98550-3 0  9995
2 43123  97.3662  24.5877 0005760 208.4845 151.6088 15.42378634267489
LEMUR-2-PETERWEBSTER    
1 43124U 18004P   22305.47985643  .00047192  00000+0  11105-2 0  9997
2 43124  97.3660  25.1216 0006102 208.6595 151.4318 15.41802980267611
LEMUR-2-BROWNCOW        
1 43125U 18004Q   22304.46546920  .00057020  00000+0  12184-2 0  9996
2 43125  97.3721  26.2641 0005877 206.4147 153.6803 15.44636461267571
LEMUR-2-DAVEWILSON      
1 43126U 18004R   22305.45871337  .00063721  00000+0  13311-2 0  9998
2 43126  97.3704  27.1205 0005777 205.3889 154.7076 15.45275185267723
LEMUR-2-MARSHALL        
1 43165U 18010C   22304.39602560  .00019570  00000+0  60314-3 0  9999
2 43165  82.9100 296.8354 0023611 200.3222 159.7085 15.33200746265281
LEMUR-2-TALLHAMN-ATC    
1 43167U 18010E   22304.72051132  .00021338  00000+0  74931-3 0  9996
2 43167  82.9141 303.3668 0017905 225.8292 134.1478 15.29121074264911
LEMUR-2-JIN-LUEN        
1 43182U 18014C   22304.64970464  .00005745  00000+0  46405-3 0  9995
2 43182  97.6289 205.8889 0014929 205.3740 154.6752 15.00126498259302
LEMUR-2-URAMCHANSOL     
1 43183U 18014D   22304.65933437  .00007630  00000+0  61199-3 0  9998
2 43183  97.6300 206.1264 0015435 191.6765 168.4103 15.00280398259319
LEMUR-2-KADI            
1 43184U 18014E   22304.60145286  .00006375  00000+0  52058-3 0  9990
2 43184  97.6315 205.8773 0013348 192.0164 168.0743 14.99678839259297
LEMUR-2-THENICKMOLO     
1 43185U 18014F   22304.28647389  .00007634  00000+0  61768-3 0  9993
2 43185  97.6397 205.8484 0009958 186.9598 173.1488 14.99998137259257
LEMUR-2-VU              
1 43558U 18046E   22304.46818144  .00100667  00000+0  12407-2 0  9996
2 43558  51.6333 210.8030 0009471 165.2286 194.8985 15.59343356240669
LEMUR-2-ALEXANDER       
1 43559U 18046F   22305.27969682  .00178321  00000+0  17206-2 0  9995
2 43559  51.6361 202.7680 0008654 182.6638 177.4312 15.65340772240621
LEMUR-2-YUASA           
1 43560U 18046G   22305.12430483  .00180650  00000+0  18925-2 0  9990
2 43560  51.6371 206.9608 0008433 184.3849 175.7073 15.63254368240772
LEMUR-2-TOMHENDERSON    
1 43561U 18046H   22304.47918817  .00097777  00000+0  13482-2 0  9990
2 43561  51.6385 216.1051 0008862 170.2187 189.8979 15.56371958240158
LEMUR-2-ZUPANSKI        
1 43695U 18088F   22304.52271112  .00028830  00000+0  90476-3 0  9993
2 43695  85.0299 222.3349 0012450  10.2011 349.9487 15.32816839220716
LEMUR-2-CHANUSIAK       
1 43697U 18088H   22304.50852985  .00039071  00000+0  11627-2 0  9995
2 43697  85.0356 222.3088 0010328 348.0346  12.0655 15.34499935220842
LEMUR-2-ORZULAK         
1 43731U 18096N   22304.81731538  .00110994  00000+0  15171-2 0  9999
2 43731  97.3575  32.3520 0013327 265.1824  94.7910 15.56967529219350
LEMUR-2-KOBYSZCZE       
1 43732U 18096P   22305.23569338  .00093881  00000+0  12639-2 0  9995
2 43732  97.3595  33.3195 0012904 264.8503  95.1280 15.57442466219446
LEMUR-2-DULY            
1 43745U 18096AC  22304.81270420  .00088077  00000+0  13484-2 0  9993
2 43745  97.3568  32.2269 0012728 268.5392  91.4404 15.53965836219355
LEMUR-2-VLADIMIR        
1 43746U 18096AD  22305.21496722  .00140833  00000+0  15616-2 0  9992
2 43746  97.3567  34.0928 0013879 268.2362  91.7306 15.62380100219538
LEMUR-2-CHRISTINAHOLT   
1 43882U 18111G   22304.81396093  .00008533  00000+0  68018-3 0  9991
2 43882  97.6588 210.3832 0008088 168.8230 191.3175 15.00554596210203
LEMUR-2-TINYKEV         
1 43883U 18111H   22304.52592703  .00008969  00000+0  70544-3 0  9996
2 43883  97.6516 210.3271 0014212 181.7018 178.4160 15.00993994210171
LEMUR-2-REMY-COLTON     
1 43884U 18111J   22305.47490540  .00008012  00000+0  63176-3 0  9990
2 43884  97.6591 211.8083 0001249 301.4353  58.6749 15.01012095208344
LEMUR-2-GUSTAVO         
1 43885U 18111K   22304.80409232  .00007934  00000+0  63160-3 0  9990
2 43885  97.6580 210.7529 0013175 183.7265 176.3863 15.00585944210211
LEMUR-2-ZO              
1 43886U 18111L   22304.65509323  .00006744  00000+0  53593-3 0  9993
2 43886  97.6597 210.9292 0016615 212.0689 147.9526 15.00666863210206
LEMUR-2-NATALIEMURRAY   
1 43887U 18111M   22304.60702191  .00007545  00000+0  59783-3 0  9994
2 43887  97.6597 211.1862 0009165 152.1210 208.0506 15.00814739210214
LEMUR-2-SARAHBETTYBOO   
1 43888U 18111N   22304.29691009  .00008309  00000+0  65537-3 0  9998
2 43888  97.6754 211.1647 0010352 252.2197 107.7898 15.00949751210174
LEMUR-2-DAISY-HARPER    
1 43889U 18111P   22304.55985645  .00008949  00000+0  70496-3 0  9990
2 43889  97.6725 211.6163 0009064 258.9927 101.0278 15.00985549210212
